[{"OBJECT_NAME":"STARLINK-34888","OBJECT_ID":"2025-195P","EPOCH":"2026-03-09T22:55:30.190656","MEAN_MOTION":15.30204893,"ECCENTRICITY":0.00010146,"INCLINATION":53.1566,"RA_OF_ASC_NODE":256.9944,"ARG_OF_PERICENTER":72.2377,"MEAN_ANOMALY":287.8734,"EPHEMERIS_TYPE":0,"CLASSIFICATION_TYPE":"U","NORAD_CAT_ID":65471,"ELEMENT_SET_NO":999,"REV_AT_EPOCH":3003,"BSTAR":0.0007813874,"MEAN_MOTION_DOT":0.00022858,"MEAN_MOTION_DDOT":0},{"OBJECT_NAME":"TRANSPORTER-1 OBJECT L","OBJECT_ID":"2021-006L","EPOCH":"2026-03-09T22:38:42.795168","MEAN_MOTION":15.33192932,"ECCENTRICITY":0.00114726,"INCLINATION":97.2368,"RA_OF_ASC_NODE":117.6447,"ARG_OF_PERICENTER":180.5165,"MEAN_ANOMALY":179.6068,"EPHEMERIS_TYPE":0,"CLASSIFICATION_TYPE":"U","NORAD_CAT_ID":47423,"ELEMENT_SET_NO":999,"REV_AT_EPOCH":28445,"BSTAR":0.00025636794,"MEAN_MOTION_DOT":8.162e-5,"MEAN_MOTION_DDOT":0}]
